FENGYUN 2F              
1 38049U 12002A   17345.87236313 -.00000364  00000-0  00000-0 0  9996
2 38049   2.0753  78.3571 0002650 245.2235 182.9838  1.00280813 21713
